#dP2022  1 23  0  0  0.00000000      96 __u+U ITR00 FIT  IAC
## 2194      0.00000000   900.00000000 59602 0.0000000000000
+  124   C01C02C04C05C06C07C08C09C10C11C12C13C14C16C19C20C21
+        C22C23C24C25C26C27C28C29C30C32C33C34C35C36C37C38C39
+        C40C41C42C43C44C45C46C59C60E01E02E03E04E05E07E08E09
+        E11E12E13E14E15E18E19E21E24E25E26E27E30E31E33E36G01
+        G02G03G04G05G06G07G08G09G10G12G13G14G15G16G17G18G19
+        G20G21G23G24G25G26G27G28G29G30G31G32J01J02J03J07R01
+        R02R03R04R05R06R07R08R09R10R11R12R13R14R15R17R18R19
+        R20R21R22R23R24  0  0  0  0  0  0  0  0  0  0  0  0
++        15 15 15 15  9  9  9  8  9  9  9  8  9  9  6  6  7
++         6  7  7  7  7  7  7  7  7  7  7  7  7  7  7  8  8
++         8  7  7  7  7  7  7  0 15  4  5  4  5  4  4  4  4
++         4  5  3  4  4  4  5  4  4  4  4  4  4  4  5  5  3
++         4  3  4  4  3  4  3  4  3  4  4  3  4  4  3  4  4
++         4  3  4  4  4  4  4  4  4  3  4  3  8  8  8  0  6
++         6  6  6  6 13  5  5  6 13  7  5  7  6  6  6  6  7
++         7  6  7 13  6  0  0  0  0  0  0  0  0  0  0  0  0
%c M  cc GPS ccc cccc cccc cccc cccc ccccc ccccc ccccc ccccc
%c cc cc ccc ccc cccc cccc cccc cccc ccccc ccccc ccccc ccccc
%f  0.0000000  0.000000000  0.00000000000  0.000000000000000
%f  0.0000000  0.000000000  0.00000000000  0.000000000000000
%i    0    0    0    0      0      0      0      0         0
%i    0    0    0    0      0      0      0      0         0
/* INFORMATION & ANALYSIS CENTER (IAC)            RAPID DATA
/* S/V CLOCKS ARE ALIGNED TO GNSS TIME                      
/* G:C1WC2W R:C1PC2P E:C1XC5X C:C2IC6I J:C1CC2S             
/* PCV:IGS14_2188 OL/AL:FES2004  NONE     YN ORB:CoN CLK:CoN
*  2022 01 23 18 45  0.00000000
PC01 -34289.271325  24493.504835    341.112471   -205.859667
PC02   4323.214661  41964.418737    841.189343    683.361832
PC04 -39600.672282  14411.494426    318.002979   -355.485899
PC05  21815.796006  36087.243585    780.155397   -505.796190
PC06 -18310.508724  35079.014576 -14854.321156    -72.701977
PC07  -2940.186221  36627.802365 -20542.564436     35.704801
PC08  -7747.155754  19820.916550  36403.223260     81.499761
PC09 -12313.229380  33875.131633 -21946.968592   -460.095118
PC10   3058.301906  38850.408760 -15235.515876    139.696809
PC11  20316.955727  -3098.039364  18962.002430   -252.533656
PC12   8257.066093  13390.456741  23090.041939   -434.841652
PC13   -408.578537  22694.941826  35680.759730   -138.133531
PC14  17272.925587   6922.088800 -20759.598906    464.826389
PC16 -20429.221036  34859.524829 -12360.398472     63.816031
PC19 -15271.310216   4167.134986  23006.187155    906.303956
PC20 -16687.092895 -15243.538548  16396.947037   -809.672006
PC21   8097.395252  26692.085529    501.217999   -969.743347
PC22  -4989.523136  21914.831329  16527.269743   -958.775292
PC23  11795.053213 -13211.576412  21564.725061   -971.176035
PC24  24459.608549  11141.546157  -7586.828925   -944.547928
PC25  25605.821903  -2733.057803  10774.820547   -790.179011
PC26  10405.173492  16625.655659 -19879.648076    789.359642
PC27   -219.748866 -19690.898653 -19781.559017    666.001264
PC28  15588.619446 -22400.111956  -5827.519651     24.281991
PC29 -21899.777573  12668.739963 -11784.896193    505.378443
PC30 -15726.575230  -5575.597245 -22374.245918    491.802564
PC32  -8296.494220 -26641.658605   -517.171069   -959.738335
PC33  15285.330328  -4184.525283 -22964.554635   -955.000413
PC34  16312.556615   4762.108613  22124.122352   -485.241948
PC35 -15254.527578  22814.709479   5158.575237    106.513266
PC36 -25834.348023   1802.831138 -10365.033849   -876.692812
PC37  -8773.783779 -16930.804813  20373.323469   -950.472289
PC38 -15351.610396  20072.585873  33753.396414    206.234558
PC39 -21674.092296  35461.572352  -7582.080001     34.694781
PC40  -6095.185694  33921.731985 -24210.839177    238.172087
PC41   5185.739094 -21676.247076 -16739.067272   -926.773813
PC42  16520.883636  16099.502232 -15652.924427   -929.244237
PC43  21989.570365 -11991.958049  12273.516243   -946.204604
PC44    744.495477  19891.406696  19566.360530    541.240808
PC45 -11482.057793  13226.351182 -21723.083582    661.541788
PC46 -25108.017994 -10325.815406   6352.947986   -130.198604
PC59      0.000000      0.000000      0.000000 999999.999999
PC60   7272.189785  41519.900499   1061.196943     -0.271063
PE01  16990.471920  -6164.489960  23442.558046   -565.173426
PE02 -16850.266692   6336.770939 -23495.190966    275.525684
PE03 -15973.217210  18055.791833  17164.760695   -520.168153
PE04   6080.719489 -28964.827984   -378.170330   -949.079616
PE05 -16668.544589  -3669.901400  24182.274054   -215.867732
PE07   7650.020800  22967.922532 -17028.452177   -631.518895
PE08  -5688.536712  29044.407845    -27.668737   5867.262764
PE09  -7771.811198 -22770.598012  17247.749707   5385.046760
PE11 -12070.354954 -12392.695053 -24022.020199   4614.883878
PE12  10398.803655 -18052.849433 -21012.683226   4795.443733
PE13  11383.804728  12639.965302  24234.048984    425.907630
PE14 -20661.623326   9090.010792 -18759.127073  -1720.459277
PE15 -10526.119337  18035.196121  20993.855828    767.576892
PE18  15237.899542 -23314.627068   5489.071403  -1877.693019
PE19  16564.945499 -15722.532440 -18825.475970    484.839141
PE21  24699.595180  10543.128687  12459.448647   -712.955893
PE24 -17699.570910 -22521.277007   7380.129519  -1351.228624
PE25 -24704.583903 -10732.558154 -12255.129876   -561.246700
PE26  26921.069533   -702.667772  12298.214835   -721.834641
PE27  18630.672267  22144.208092  -6270.659979   -216.112188
PE30    446.808426  20185.353212 -21665.003433   -215.736512
PE31  -1628.040174 -20617.791013  21175.412201   -491.165104
PE33  26153.935093 -12764.449989  -5369.262302   -460.111857
PE36 -26492.694158    164.965041 -13200.550929   -322.183296
PG01  -5578.691635 -13938.063034 -22213.191569    449.752429
PG02 -16612.819321  15144.019603  14901.512280   -649.345546
PG03 -11592.110883 -22437.089876  -8499.711436    -90.186054
PG04  -1719.071894 -22466.069676  14002.009259   -193.522294
PG05  -1852.064702  17904.049731  19318.450211    -68.919546
PG06 -26000.880280   5512.752035   1105.477374    179.528158
PG07 -20984.079988  -7298.886710  15289.154225    304.437275
PG08   5502.723731 -25489.460784  -3969.518573    -53.322436
PG09 -10627.645172 -13456.187837  20202.999948   -356.938003
PG10  20216.234067   6941.663861 -15815.457805   -301.135571
PG12   7939.464627  23132.155127 -10786.637875   -160.210211
PG13 -13163.509300  22875.024048   1918.951901    250.038654
PG14 -20139.819593  -7746.798979 -15532.590435    -74.685026
PG15  -1941.084976  25936.601665  -4854.072831    -89.318750
PG16   6845.251008 -14741.055049  20642.240919   -459.759948
PG17 -15901.727919   1870.887064 -20765.811122    565.422307
PG18  21032.242174   6779.491599  14806.477203    255.047847
PG19 -17641.814741   9642.303701 -17523.142468    109.430207
PG20 -10598.492720  11492.290072  21462.574339    517.035309
PG21   4814.523769 -15807.507355 -19970.143743    156.710216
PG23  20389.489177  15805.420306  -6534.694913      8.255762
PG24   1480.466839  15994.445272 -21414.188825    276.898359
PG25  17329.633292  20333.267006   -295.870597    275.175109
PG26  16436.645896  -4371.302340  20389.046091    176.980695
PG27  12379.034802 -22340.168963   6304.468452     84.575486
PG28 -16940.725536   -373.463027 -19868.847082    415.913468
PG29   6888.320232  16644.607102  19456.219245   -471.090295
PG30 -25742.813104   -953.894542   7034.266859   -508.728912
PG31  25781.977650  -6542.783729   3284.421966   -161.334688
PG32  16680.141408  -6515.282429 -19431.600298    -55.328992
PJ01 -28293.895356  23776.849775  25243.144766    282.005564
PJ02 -24377.841918  16438.125584 -25690.271257     -0.928123
PJ03 -27782.446987  31692.824970   5347.754027     -0.256593
PJ07      0.000000      0.000000      0.000000 999999.999999
PR01   2210.572018 -22751.424987 -11331.695564      7.116352
PR02  -6728.560673 -23017.241166   8639.619181    507.437979
PR03 -11183.989704  -8928.040013  21142.148661     50.403080
PR04  -9085.827251   9807.636746  21751.882004    124.789966
PR05  -2188.013182  23235.550220  10336.677712     86.471166
PR06   7887.273686  22348.235288  -9481.570585    -28.663865
PR07  11187.985997   8331.472747 -21332.100990     30.957325
PR08   9115.318938  -9921.911327 -21599.316507    -63.227727
PR09  15642.219550  14004.447691 -14423.763136     35.647865
PR10  23796.242774   9265.240228    841.014275    -79.146694
PR11  18797.560126  -1152.460080  17206.223371     46.761565
PR12   2035.134059 -11030.633088  22927.715525    297.396863
PR13 -14828.199062 -13959.842134  15334.081540    -17.408395
PR14 -23860.417225  -8751.292494  -2234.501751     73.547978
PR15 -18364.548911   1432.767768 -17628.533923     98.694720
PR17 -16773.486928   1670.342281 -19116.219321    495.217859
PR18 -21437.723582  12886.795201  -5124.808253    104.834428
PR19 -15954.002937  16831.189352  10628.235294   -175.499980
PR20   1521.150635  11272.480415  22850.538561    -63.582393
PR21  17578.371473  -2735.935289  18297.162750   -272.365597
PR22  21372.520240 -13162.972792   4231.247714   -159.996978
PR23  11090.752364 -16733.746373 -15734.363067    -27.777258
PR24  -2715.912021 -11184.591756 -22742.014287     76.973807
EOF
